{
    "links": {
        "self": "http://www.neowsapp.com/rest/v1/neo/3825429?api_key=iIulBulltgU6a56xZRHN4H3l9WmuAYTsLGpBGhQ2"
    },
    "id": "3825429",
    "neo_reference_id": "3825429",
    "name": "(2018 MB5)",
    "designation": "2018 MB5",
    "nasa_jpl_url": "http://ssd.jpl.nasa.gov/sbdb.cgi?sstr=3825429",
    "absolute_magnitude_h": 24.3,
    "estimated_diameter": {
        "kilometers": {
            "estimated_diameter_min": 0.0366906138,
            "estimated_diameter_max": 0.0820427065
        },
        "meters": {
            "estimated_diameter_min": 36.6906137531,
            "estimated_diameter_max": 82.0427064882
        },
        "miles": {
            "estimated_diameter_min": 0.0227984834,
            "estimated_diameter_max": 0.0509789586
        },
        "feet": {
            "estimated_diameter_min": 120.3760332259,
            "estimated_diameter_max": 269.1689931548
        }
    },
    "is_potentially_hazardous_asteroid": false,
    "close_approach_data": [
        {
            "close_approach_date": "2018-06-01",
            "close_approach_date_full": "2018-Jun-01 13:29",
            "epoch_date_close_approach": 1527859740000,
            "relative_velocity": {
                "kilometers_per_second": "5.0288168706",
                "kilometers_per_hour": "18103.7407342959",
                "miles_per_hour": "11248.9604579296"
            },
            "miss_distance": {
                "astronomical": "0.1786032434",
                "lunar": "69.4766616826",
                "kilometers": "26718664.787731558",
                "miles": "16602208.4444611804"
            },
            "orbiting_body": "Earth"
        }
    ],
    "orbital_data": {
        "orbit_id": "1",
        "orbit_determination_date": "2018-06-19 17:12:03",
        "first_observation_date": "2018-06-17",
        "last_observation_date": "2018-06-19",
        "data_arc_in_days": 2,
        "observations_used": 12,
        "orbit_uncertainty": "9",
        "minimum_orbit_intersection": ".175666",
        "jupiter_tisserand_invariant": "3.610",
        "epoch_osculation": "2458287.5",
        "eccentricity": ".4434606519899882",
        "semi_major_axis": "2.098805927096289",
        "inclination": "6.520465064933227",
        "ascending_node_longitude": "107.7862470795326",
        "orbital_period": "1110.597904892371",
        "perihelion_distance": "1.168068082265717",
        "perihelion_argument": "133.1833865180273",
        "aphelion_distance": "3.029543771926861",
        "perihelion_time": "2458262.625365579378",
        "mean_anomaly": "8.063105784709494",
        "mean_motion": ".3241497200869364",
        "equinox": "J2000",
        "orbit_class": {
            "orbit_class_type": "AMO",
            "orbit_class_description": "Near-Earth asteroid orbits similar to that of 1221 Amor",
            "orbit_class_range": "1.017 AU < q (perihelion) < 1.3 AU"
        }
    },
    "is_sentry_object": false
}